C/2018 L2 (ATLAS),e,67.2853,243.0080,56.3172,259.8996,0.0002352,0.99340023,0.0000,12/02.4171/2018,2000,g 10.0,4.0
# From MPC114603
P/2018 L4 (PANSTARRS),e,26.6219,145.1636,140.6221,4.944666,0.0896393,0.65932702,133.6380,08/30.0/2022,2000,g 17.5,4.0
# From MPC119996
P/2018 L5 (Leonard),e,2.2085,219.0534,93.9449,3.628756,0.1425829,0.36439397,224.9096,08/30.0/2022,2000,g 14.5,4.0
# From MPC117070
C/2018 M1 (Catalina),e,37.2954,339.4122,14.2248,21.47543,0.0099036,0.93926766,14.9661,08/30.0/2022,2000,g 15.5,4.0
# From MPEC 2022-M21
C/2018 N1 (NEOWISE),e,159.4221,292.5099,354.7173,499.0531,0.0000884,0.99737472,0.0000,08/02.5757/2018,2000,g 15.5,4.0
# From MPEC 2022-L66
C/2018 N2 (ASASSN),h,11/11.2202/2019,77.5492,25.2089,24.4595,1.000695,3.126688,2000,6.0,4.0
# From MPC114603
C/2018 O1 (ATLAS),e,154.0110,87.7507,162.6925,28.07449,0.0066258,0.94445173,9.6653,08/30.0/2022,2000,g 17.0,4.0
# From MPEC 2022-M21
P/2018 P3 (PANSTARRS),e,8.9138,59.1593,305.9619,3.004715,0.1892340,0.41708562,268.4719,08/30.0/2022,2000,g 14.5,4.0
# From MPC114603
P/2018 P4 (PANSTARRS),e,23.1099,353.0612,8.3872,6.682079,0.0570606,0.45066103,79.3158,08/30.0/2022,2000,g 12.0,4.0
# From MPEC 2021-P47
C/2018 P5 (PANSTARRS),e,7.2477,216.2070,131.9154,12.83797,0.0214269,0.64292639,27.4048,08/30.0/2022,2000,g 11.0,4.0
# From MPC118841
C/2018 R3 (Lemmon),e,69.7215,324.6162,112.7528,1557,0.0000160,0.99917468,0.0000,06/07.6270/2019,2000,g  9.5,4.0
# From MPEC 2022-M21
C/2018 R4 (Fuls),e,11.6731,298.5085,345.3281,348.4661,0.0001515,0.99505958,0.0000,03/02.9339/2018,2000,g 14.0,4.0
# From MPC114603
C/2018 R5 (Lemmon),e,103.7499,171.1132,178.1658,22.86611,0.0090140,0.84124806,11.9687,08/30.0/2022,2000,g 11.5,4.0
# From MPEC 2022-QC6
C/2018 S2 (TESS),e,64.1666,85.1069,290.7827,14.35579,0.0181202,0.61877956,25.2314,08/30.0/2022,2000,g  7.5,4.0
# From MPEC 2022-QD9
C/2018 U1 (Lemmon),h,11/03.1785/2021,108.3099,75.4847,180.4773,1.001524,4.993039,2000,5.0,4.0
# From MPC114604
C/2018 V1 (Machholz-Fujikawa-Iwamoto),h,12/02.8500/2018,144.0805,128.9925,89.0239,1.000341,0.389457,2000,12.0,4.0
# From MPC115884
C/2018 V2 (ATLAS),e,159.1675,357.0757,318.9844,25.04545,0.0078634,0.90087773,10.8001,08/30.0/2022,2000,g 15.0,4.0
# From MPC114604
P/2018 VN2 (Leonard),e,18.2611,226.4612,138.8277,4.064018,0.1203014,0.47891708,185.8663,08/30.0/2022,2000,g 15.0,4.0
# From MPEC 2021-P47
A/2018 V3,e,164.9701,308.6828,3.5948,126.5474,0.0006923,0.98940045,0.0000,09/08.9947/2019,2000,g 15.7,2.0
# From MPEC 2022-M21
C/2018 V4 (Africano),e,69.0159,78.3032,359.9322,200.2888,0.0003477,0.98404894,0.0000,03/01.4441/2019,2000,g 12.5,4.0
# From MPEC 2021-P47
P/2018 V5 (Trujillo-Sheppard),e,10.5892,171.2868,260.6545,8.958081,0.0367605,0.47533351,52.4450,08/30.0/2022,2000,g 12.5,4.0
# From MPEC 2021-P47
C/2018 W1 (Catalina),e,83.3513,233.6426,251.2216,21.67792,0.0097651,0.93727931,11.7791,08/30.0/2022,2000,g 15.5,2.0
# From MPEC 2021-P47
C/2018 W2 (Africano),h,09/05.3831/2019,116.6266,181.8157,158.0387,1.000500,1.459229,2000,9.5,4.0
# From MPEC 2022-Q17
A/2018 W3,e,104.8090,251.6681,313.9655,683.3186,0.0000552,0.99372093,0.0000,04/13.0395/2021,2000,g 10.5,2.0
# From MPC119996
C/2018 X2 (Fitzsimmons),e,23.0702,340.8240,161.9704,140.6674,0.0005908,0.98490842,0.0000,07/08.1924/2019,2000,g 12.0,4.0
# From MPC114604
C/2018 X3 (PANSTARRS),e,43.3970,78.8471,359.7346,12.37064,0.0226525,0.78238736,30.3113,08/30.0/2022,2000,g 14.5,4.0
# From MPC118842
C/2018 Y1 (Iwamoto),e,160.4036,147.5019,357.9412,132.6017,0.0006455,0.99032040,0.0000,02/06.3146/2019,2000,g 11.5,4.0
# From MPC114605
P/2018 Y2 (Africano),e,11.6831,297.2275,162.2472,7.454212,0.0484285,0.47898597,64.7223,08/30.0/2022,2000,g 11.5,4.0
# From MPC114605
P/2019 A1 (PANSTARRS),e,13.7478,312.2799,150.7122,5.117645,0.0851332,0.56882248,120.8249,08/30.0/2022,2000,g 16.0,4.0
# From MPEC 2021-P47
P/2019 A2 (ATLAS),e,14.8602,139.4598,323.8783,5.715629,0.0721287,0.38182763,99.4499,08/30.0/2022,2000,g 10.5,4.0
# From MPEC 2022-M21
P/2019 A3 (PANSTARRS),e,15.3746,31.2927,325.6089,3.145051,0.1767106,0.26606595,262.7423,08/30.0/2022,2000,g 16.0,4.0
# From MPEC 2022-L66
P/2019 A4 (PANSTARRS),e,13.3061,119.2450,342.9098,2.613633,0.2332583,0.08711175,316.8631,08/30.0/2022,2000,g 15.0,4.0
# From MPEC 2021-P47
C/2019 A5 (PANSTARRS),e,67.5560,146.6198,355.8406,21.50653,0.0098821,0.70627244,11.6604,08/30.0/2022,2000,g  9.5,4.0
# From MPC114605
P/2019 A6 (Lemmon-PANSTARRS),e,33.2527,280.2189,156.1787,5.358450,0.0794594,0.63963798,116.1151,08/30.0/2022,2000,g 16.0,4.0
# From MPC115884
P/2019 A8 (PANSTARRS),e,2.2004,114.9327,65.7778,4.252305,0.1124003,0.24919672,166.7281,08/30.0/2022,2000,g 16.0,4.0
# From MPC118842
C/2019 A9 (PANSTARRS),e,84.2123,278.3945,237.9284,39.18268,0.0040185,0.96347889,4.5449,08/30.0/2022,2000,g 15.0,4.0
# From MPEC 2022-L66
C/2019 B1 (Africano),e,123.3865,290.4012,174.7830,139.3309,0.0005993,0.98853900,0.0000,03/19.0048/2019,2000,g 16.0,4.0
# From MPC115885
P/2019 B2 (Groeller),e,17.0265,175.7425,1.0554,3.906189,0.1276657,0.36343485,151.1484,08/30.0/2022,2000,g 14.5,4.0
# From MPEC 2022-QD9
C/2019 B3 (PANSTARRS),h,01/20.4395/2021,66.5352,358.4371,263.9548,1.000748,6.824335,2000,5.5,4.0
# From MPEC 2021-P47
C/2019 C1 (ATLAS),e,36.0462,212.3886,319.1156,657.8120,0.0000584,0.98999943,0.0000,05/04.6562/2020,2000,g 10.0,4.0
# From MPEC 2022-O08
C/2019 D1 (Flewelling),e,34.0277,231.6791,70.6387,143.1113,0.0005757,0.98893573,0.0000,05/11.5593/2019,2000,g 13.0,4.0
# From MPEC 2022-N37
C/2019 E3 (ATLAS),h,11/14.4200/2023,84.2976,347.2536,280.6664,1.000904,10.313383,2000,2.5,4.0
# From MPEC 2022-QD9
C/2019 F1 (ATLAS-Africano),h,06/23.0757/2021,54.1885,38.6965,251.2053,1.003697,3.597286,2000,5.5,4.0
# From MPEC 2021-P47
C/2019 F2 (ATLAS),e,19.2420,175.5261,11.5635,16.65072,0.0145062,0.86515318,15.7640,08/30.0/2022,2000,g 12.0,4.0
# From MPEC 2021-P47
A/2019 G2,e,159.2111,208.1564,82.6131,489.5820,0.0000910,0.99531731,0.0000,12/09.1812/2019,2000,g 16.5,2.0
# From MPEC 2021-F20
A/2019 G3,e,156.8108,49.8686,161.9390,17.21611,0.0137975,0.83435025,18.8306,08/30.0/2022,2000,g 17.1,2.0
# From MPEC 2022-P82
C/2019 G4 (PANSTARRS),h,09/16.0305/2018,138.3695,130.4600,287.8168,1.001999,5.852306,2000,9.5,4.0
# From MPC114607
P/2019 GG21 (PANSTARRS),e,6.0849,340.5647,208.6106,7.471227,0.0482632,0.47204212,58.2805,08/30.0/2022,2000,g 12.0,4.0
# From MPEC 2022-M21
C/2019 H1 (NEOWISE),e,104.5008,269.2462,19.3517,249.7013,0.0002498,0.99260737,0.0000,04/27.9831/2019,2000,g 15.5,4.0
# From MPEC 2022-O08
C/2019 J1 (Lemmon),e,24.5459,98.1310,167.7810,68.63133,0.0017335,0.96381119,2.1488,08/30.0/2022,2000,g 12.0,4.0
# From MPEC 2021-R75
C/2019 J2 (Palomar),e,105.2257,25.5503,98.7205,161.3539,0.0004809,0.98931392,0.0000,07/20.0400/2019,2000,g 13.0,4.0
# From MPC117071
C/2019 J3 (ATLAS),h,08/02.2864/2019,131.3776,270.5767,16.6224,1.000689,2.373279,2000,13.5,4.0
# From MPEC 2022-M21
C/2019 JU6 (ATLAS),e,148.3273,21.7580,95.0131,33396,0.0000002,0.99993872,0.0000,06/01.5161/2019,2000,g 14.5,4.0
# From MPEC 2022-O08
C/2019 K1 (ATLAS),e,87.0840,73.3564,265.7166,51990,0.0000001,0.99996128,0.0000,02/12.9240/2020,2000,g 10.0,4.0
# From MPC119997
C/2019 K4 (Ye),e,105.2965,180.1400,139.8298,1323,0.0000205,0.99828841,0.0000,06/15.8474/2019,2000,g 12.5,4.0
# From MPEC 2021-P47
C/2019 K5 (Young),e,15.3194,177.1260,175.0932,165.8464,0.0004615,0.98770481,0.0000,06/23.0780/2019,2000,g 13.0,4.0
# From MPEC 2021-P47
C/2019 K6 (PANSTARRS),e,132.3833,42.9815,187.6230,1820,0.0000127,0.99784231,0.0000,05/20.1924/2020,2000,g 11.5,4.0
# From MPEC 2022-QD9
C/2019 K7 (Smith),h,06/17.4645/2020,103.5399,307.9455,27.3827,1.000668,4.477691,2000,6.0,4.0
# From MPEC 2021-R75
C/2019 K8 (ATLAS),e,93.1759,291.0408,85.3878,2727,0.0000069,0.99882893,0.0000,07/21.7620/2019,2000,g 11.5,4.0
# From MPC118095
C/2019 L1 (PANSTARRS),e,9.9842,254.4284,50.0346,9.842853,0.0319170,0.70571740,35.5832,08/30.0/2022,2000,g 13.5,4.0
# From MPC115886
C/2019 L2 (NEOWISE),e,152.2091,12.5498,18.8131,24.96119,0.0079033,0.93490048,9.8497,08/30.0/2022,2000,g 16.0,4.0
# From MPEC 2022-PB4
P/2019 LD2 (ATLAS),e,11.6225,179.5964,121.2150,5.234690,0.0822939,0.12724753,73.6664,08/30.0/2022,2000,g  8.5,4.0
# From MPEC 2022-QD9
C/2019 L3 (ATLAS),h,01/09.6209/2022,48.3559,290.7874,171.6106,1.001827,3.554421,2000,4.5,4.0
# From MPC118095
C/2019 LB7 (Kleyna),e,164.2918,3.8850,336.5161,34.58454,0.0048460,0.92806241,6.0703,08/30.0/2022,2000,g 17.0,4.0
# From MPEC 2022-O08
P/2019 M2 (ATLAS),e,12.2758,307.6121,332.5708,3.028200,0.1870369,0.64767489,217.8489,08/30.0/2022,2000,g 21.2,4.0
# From MPC118095
C/2019 M3 (ATLAS),e,99.4911,154.9138,87.8837,20074,0.0000003,0.99987943,0.0000,01/01.4457/2019,2000,g 12.2,4.0
# From MPEC 2022-C56
C/2019 N1 (ATLAS),e,82.4291,13.5741,193.4380,2433,0.0000082,0.99929913,0.0000,12/01.6027/2020,2000,g  7.5,4.0
# From MPEC 2022-A21
C/2019 NJ3 (Lemmon),h,10/22.7752/2020,99.4326,142.4610,246.8989,1.002135,4.362639,2000,9.0,4.0
# From MPEC 2022-QD9
A/2019 O2,e,93.3007,48.2725,129.6565,57.61807,0.0022535,0.83195026,359.5028,08/30.0/2022,2000,g  9.5,2.0
# From MPEC 2022-QD9
C/2019 O3 (Palomar),h,03/09.2730/2021,89.8198,300.4018,60.1137,1.004065,8.820424,2000,3.5,4.0
# From MPEC 2021-P47
A/2019 O4,e,115.0966,354.9076,61.8912,33.17553,0.0051580,0.89008629,4.8043,08/30.0/2022,2000,g 15.5,2.0
# From MPEC 2021-N06
C/2019 Q1 (Lemmon),h,07/20.3792/2020,155.7265,42.4680,56.1603,1.000247,5.000798,2000,8.5,4.0
# From MPC117072
A/2019 Q2,e,159.0315,188.0054,176.3486,57.50549,0.0022602,0.97806968,0.0000,07/22.0227/2019,2000,g 18.0,2.0
# From MPC117072
C/2019 Q3 (PANSTARRS),h,08/21.5362/2018,65.5299,151.3274,152.7732,1.002953,7.262562,2000,8.5,4.0
# From MPC117072
P/2019 S2 (PANSTARRS),e,10.4684,93.1403,217.1133,4.741018,0.0954765,0.20615763,122.6458,08/30.0/2022,2000,g 13.5,4.0
# From MPEC 2022-CN4
P/2019 S3 (PANSTARRS),e,8.6944,150.1593,213.0248,3.415365,0.1561523,0.47123109,171.6354,08/30.0/2022,2000,g 18.3,4.0
# From MPEC 2021-S45
